SCD 1                   
1 22490U 93009B   22237.17915402  .00000250  00000+0  18355-4 0  9995
2 22490  24.9689 152.5225 0042949 181.4102 330.3121 14.44711362559504
TECHSAT 1B (GO-32)      
1 25397U 98043D   22237.43981367 -.00000003  00000+0  18517-4 0  9996
2 25397  98.8221 188.1063 0000157 284.9985  75.1176 14.23766859253247
SCD 2                   
1 25504U 98060A   22237.54293462  .00000261  00000+0  22671-4 0  9990
2 25504  24.9971   5.3995 0017083 191.6683 218.2864 14.44223233258840
LANDSAT 7               
1 25682U 99020A   22237.38665435  .00000180  00000+0  46863-4 0  9998
2 25682  97.9741 282.8394 0001126  92.1275 268.0054 14.59789270242627
DLR-TUBSAT              
1 25757U 99029B   22237.54941162  .00000013  00000+0  14993-4 0  9996
2 25757  98.4909 180.8009 0013234 267.9054  92.0625 14.51513131231408
TERRA                   
1 25994U 99068A   22237.49631785  .00000114  00000+0  35175-4 0  9990
2 25994  98.1329 307.8188 0001541  85.4480  29.8733 14.57141260206559
MAROC-TUBSAT            
1 27004U 01056D   22237.39806829 -.00000041  00000+0  44379-5 0  9993
2 27004  99.6358  17.8099 0020598 114.1971 307.8774 13.70159545 35584
AQUA                    
1 27424U 02022A   22237.50525480  .00000211  00000+0  56598-4 0  9990
2 27424  98.2497 178.7531 0001816  63.3735  48.2390 14.57361991 80241
IRS-P6 (RESOURCESAT-1)  
1 28051U 03046A   22237.45229859  .00000060  00000+0  35876-4 0  9997
2 28051  98.4008 306.5096 0058910 171.3650 188.8565 14.34224988980915
SHIYAN 1 (SY-1)         
1 28220U 04012A   22237.41711714  .00001010  00000+0  81543-4 0  9999
2 28220  97.9782 231.5103 0012276  98.7021 261.5593 15.02162814   379
AURA                    
1 28376U 04026A   22237.50910371  .00000224  00000+0  59800-4 0  9993
2 28376  98.2116 179.8613 0001588  79.1565 280.9813 14.57121301963289
IRS-P5 (CARTOSAT-1)     
1 28649U 05017A   22237.18641820  .00000285  00000+0  40136-4 0  9990
2 28649  97.7139 295.3490 0001752  43.8009 316.3345 14.84237123936938
SINAH 1                 
1 28893U 05043D   22237.32450615  .00000068  00000+0  23043-4 0  9993
2 28893  98.1195 359.6473 0014263 320.8984  39.1185 14.61734887897013
EROS B                  
1 29079U 06014A   22237.53202725  .00007233  00000+0  28882-3 0  9995
2 29079  97.3892 357.3352 0005159  72.8087 350.8526 15.25433737906900
RESURS-DK 1             
1 29228U 06021A   22237.41848362  .00000398  00000+0  36475-4 0  9992
2 29228  69.9363 313.2418 0006973 297.5805  62.4647 15.03363421892741
ARIRANG-2 (KOMPSAT-2)   
1 29268U 06031A   22237.47160027  .00000170  00000+0  42144-4 0  9996
2 29268  97.9463 103.4571 0015324 153.3647 206.8353 14.62825187857980
LAPAN-TUBSAT            
1 29709U 07001A   22237.39961835  .00000269  00000+0  40204-4 0  9995
2 29709  97.9719 199.8330 0013669  37.2540 322.9622 14.82540614844726
CARTOSAT-2 (IRS-P7)     
1 29710U 07001B   22237.34259125  .00011016  00000+0  26485-3 0  9990
2 29710  97.8703 346.9026 0146719 175.1311 185.1397 15.31008937846775
HAIYANG-1B              
1 31113U 07010A   22237.31653895  .00000016  00000+0  22232-4 0  9994
2 31113  98.3174 259.4204 0014004  14.1321 346.0252 14.30329192801612
COSMO-SKYMED 1          
1 31598U 07023A   22237.46510870 -.00000073  00000+0 -25864-5 0  9996
2 31598  97.8895  60.1371 0001456  94.8990 265.2493 14.82147507823189
TERRASAR-X              
1 31698U 07026A   22237.48079773 -.00000922  00000+0 -40749-4 0  9995
2 31698  97.4445 244.1021 0001975  83.3223  24.8665 15.19144119842594
WORLDVIEW-1 (WV-1)      
1 32060U 07041A   22237.33304478  .00002101  00000+0  88651-4 0  9996
2 32060  97.3920 355.7806 0005024 241.3693 118.7040 15.24383911830881
YAOGAN 3                
1 32289U 07055A   22237.49815773  .00000768  00000+0  10475-3 0  9991
2 32289  97.9465 258.8485 0001091  85.2150 274.9200 14.81490828799260
COSMO-SKYMED 2          
1 32376U 07059A   22237.49886579 -.00001562  00000+0 -18970-3 0  9997
2 32376  97.8897  60.1698 0001699  82.4217 277.7227 14.82143897795934
RADARSAT-2              
1 32382U 07061A   22237.48748797  .00000100  00000+0  55720-4 0  9995
2 32382  98.5772 243.4208 0001169  96.4967  56.8175 14.29982997767168
CARTOSAT-2A             
1 32783U 08021A   22237.44272886  .00004354  00000+0  60012-3 0  9998
2 32783  97.9606 296.9586 0011614 308.4792  51.5423 14.78683716773214
HUANJING 1A (HJ-1A)     
1 33320U 08041A   22237.54840004  .00000274  00000+0  44790-4 0  9995
2 33320  97.6743 267.3548 0021447  11.5143 348.6553 14.77896684752599
HUANJING 1B (HJ-1B)     
1 33321U 08041B   22237.56632900  .00000639  00000+0  94859-4 0  9998
2 33321  97.6910 271.0764 0035036  27.7832 332.5234 14.77837302752591
GEOEYE 1                
1 33331U 08042A   22237.50400648  .00000121  00000+0  31808-4 0  9997
2 33331  98.1085 311.4862 0009963  63.5441 296.6789 14.64559720746479
THEOS                   
1 33396U 08049A   22237.49615019  .00000169  00000+0  10000-3 0  9995
2 33396  98.7445 304.4457 0001306 101.6406  23.8181 14.20007358720460
COSMO-SKYMED 3          
1 33412U 08054A   22237.45310272 -.00000098  00000+0 -38833-5 0  9998
2 33412  97.8894  61.2829 0016318 247.8694 112.0776 14.91875873748463
YAOGAN 4                
1 33446U 08061A   22237.39181898  .00000192  00000+0  33944-4 0  9996
2 33446  97.8188 175.4331 0014718 271.5626  88.3899 14.77440282739774
GOSAT (IBUKI)           
1 33492U 09002A   22237.34854826  .00000209  00000+0  45474-4 0  9996
2 33492  98.1210 349.4397 0001581  88.4385 271.7000 14.67521161727326
YAOGAN 6                
1 34839U 09021A   22237.53794885  .00002324  00000+0  81577-4 0  9996
2 34839  97.0873 214.5069 0027468  53.3790 306.9972 15.30024931741796
DEIMOS-1                
1 35681U 09041A   22237.45646937  .00000196  00000+0  38521-4 0  9995
2 35681  97.7084  84.9691 0002244  44.5073 315.6305 14.72094092701922
DUBAISAT-1              
1 35682U 09041B   22237.42873077  .00000292  00000+0  57400-4 0  9994
2 35682  97.8118  27.6406 0010377 205.3581 154.7105 14.69259217700418
OCEANSAT-2              
1 35931U 09051A   22237.49773468 -.00043524  00000+0 -15391-1 0  9999
2 35931  98.2999 329.8226 0002595 242.8593 117.2339 14.34930129684128
WORLDVIEW-2 (WV-2)      
1 35946U 09055A   22237.45501796  .00000012  00000+0  18672-4 0  9999
2 35946  98.4840 311.7229 0001972 127.8352 232.3026 14.37657367675829
SMOS                    
1 36036U 09059A   22237.52745042  .00000091  00000+0  42913-4 0  9998
2 36036  98.4444  64.0489 0001193  85.1353 274.9972 14.39774002673208
YAOGAN 7                
1 36110U 09069A   22237.45471661  .00001454  00000+0  22203-3 0  9990
2 36110  98.1949  98.0444 0025367 184.1613 175.9378 14.75193310684315
TANDEM-X                
1 36605U 10030A   22236.09349791  .00000334  00000+0  19073-4 0  9994
2 36605  97.4462 242.7344 0001788  74.5050  11.4927 15.19153613675136
CARTOSAT-2B             
1 36795U 10035A   22237.54813912  .00000371  00000+0  57674-4 0  9991
2 36795  97.9553 297.1621 0014515  25.9076 334.2861 14.78654458654276
YAOGAN 10               
1 36834U 10038A   22237.57459185  .00000278  00000+0  42435-4 0  9994
2 36834  97.9764 248.0749 0001241  79.7993 280.3350 14.81325582651017
COSMO-SKYMED 4          
1 37216U 10060A   22237.44402871 -.00000021  00000+0  38652-5 0  9994
2 37216  97.8895  60.1156 0001373  87.0974 273.0425 14.82155590638476
RESOURCESAT-2           
1 37387U 11015A   22237.45437654  .00000052  00000+0  43262-4 0  9997
2 37387  98.6588 308.6744 0003425 219.4089 140.6843 14.21655132588965
HAIYANG-2A              
1 37781U 11043A   22237.45065954 -.00000010  00000+0  33116-4 0  9998
2 37781  99.3186 242.1100 0001476  63.5432 296.5871 13.78744216554897
RASAT                   
1 37791U 11044D   22237.55816432  .00000249  00000+0  55264-4 0  9997
2 37791  98.0965 329.4808 0020483 272.7721  87.1136 14.65057727589232
MEGHA-TROPIQUES         
1 37838U 11058A   22235.33275222  .00000317  00000+0  23724-4 0  9996
2 37838  19.9779 242.8506 0042822 298.4448  61.1648 14.16657403493231
SRMSAT                  
1 37841U 11058D   22237.31305576  .00000310  00000+0  25114-4 0  9994
2 37841  19.9707 198.6846 0011863  21.5728 126.5451 14.10767010560972
YAOGAN 13               
1 37941U 11072A   22237.52963272  .00003298  00000+0  14839-3 0  9996
2 37941  97.6353 188.6472 0003015 120.9966 350.5541 15.21828687595300
PLEIADES 1A             
1 38012U 11076F   22237.53076412 -.00001995  00000+0 -41981-3 0  9994
2 38012  98.1963 311.5748 0001201  77.5118 282.6319 14.58525404569148
ZIYUAN 1-02C (ZY 1-02C) 
1 38038U 11079A   22237.58238739  .00000124  00000+0  58525-4 0  9996
2 38038  98.5845 301.8724 0007886  63.6991 296.5006 14.35327576559405
ZIYUAN 3-1 (ZY 3-1)     
1 38046U 12001A   22237.56476434  .00002430  00000+0  11175-3 0  9996
2 38046  97.3367 306.7549 0002281 132.1862 342.0938 15.21275709590112
ARIRANG-3 (KOMPSAT-3)   
1 38338U 12025B   22237.57545398  .00000224  00000+0  54249-4 0  9992
2 38338  98.1821 176.9907 0011097 151.2821 208.8973 14.61901747548074
KANOPUS-V 1             
1 38707U 12039A   22237.53480389  .00004142  00000+0  18117-3 0  9997
2 38707  97.4666 159.1742 0001948  96.3598  16.5361 15.22626638559907
EXACTVIEW-1 (ADS-1B)    
1 38709U 12039C   22237.41014507  .00000013  00000+0  25865-4 0  9993
2 38709  99.0049 305.5910 0010407 215.7568 144.2914 14.24115225524552
SPOT 6                  
1 38755U 12047A   22237.47685475  .00000115  00000+0  34719-4 0  9998
2 38755  98.2298 303.4549 0001064  84.0743 276.0576 14.58543125530215
PLEIADES 1B             
1 39019U 12068A   22237.56497769  .00000122  00000+0  35998-4 0  9990
2 39019  98.1923 311.5595 0001465  89.4794 270.6570 14.58562146518005
GOKTURK 2               
1 39030U 12073A   22237.52707032  .00000179  00000+0  35333-4 0  9997
2 39030  97.8455 114.2591 0002218  98.4704 261.6756 14.72904722519526
LANDSAT 8               
1 39084U 13008A   22237.50635155  .00000111  00000+0  34779-4 0  9998
2 39084  98.2184 306.9389 0001303  96.7128 263.4219 14.57112057495239
